JCSAT-3A                
1 29272U 06033A   26178.18993595 -.00000333  00000+0  00000+0 0  9995
2 29272   0.0228 303.6871 0002469 158.2383   9.7558  1.00271982 47842
KOREASAT 5 (MUGUNGWHA 5)
1 29349U 06034A   26178.03447608 -.00000348  00000+0  00000+0 0  9990
2 29349   1.8101  82.8804 0001814  48.7829 268.9599  1.00272370 41412
DIRECTV 9S              
1 29494U 06043A   26178.14466719 -.00000104  00000+0  00000+0 0  9997
2 29494   2.4461  80.7924 0005423  18.9230 126.4222  1.00271903 51484
OPTUS D1                
1 29495U 06043B   26177.90959286 -.00000175  00000+0  00000+0 0  9995
2 29495   3.0594  79.5433 0003726   8.2974 306.6068  1.00270977 72215
BADR-4                  
1 29526U 06051A   26178.17147586  .00000165  00000+0  00000+0 0  9999
2 29526   2.0301  81.0234 0005363  12.7343 277.7247  1.00268546 51360
WILDBLUE-1              
1 29643U 06054A   26178.15530876 -.00000040  00000+0  00000+0 0  9991
2 29643   2.8284  80.3650 0001759   6.7040 132.9004  1.00271204 53892
SKYNET 5A               
1 30794U 07007B   26178.11226403 -.00000265  00000+0  00000+0 0  9992
2 30794   5.3249  73.6223 0003706  27.5478 309.6925  1.00271314 70796
ANIK F3                 
1 31102U 07009A   26178.06986200  .00000010  00000+0  00000+0 0  9997
2 31102   1.2228  83.7482 0002932   6.5281  91.3604  1.00270509 46663
ASTRA 1L                
1 31306U 07016A   26178.15977580 -.00000174  00000+0  00000+0 0  9994
2 31306   1.3472  81.5146 0005708  18.7291 208.0438  1.00270460 45087
GALAXY 17 (G-17)        
1 31307U 07016B   26178.19003037 -.00000197  00000+0  00000+0 0  9991
2 31307   2.9969  79.7814 0004599  20.0086 158.9135  1.00271226 69907
INTELSAT 11 (IS-11)     
1 32253U 07044B   26178.18083589  .00000038  00000+0  00000+0 0  9995
2 32253   3.5910  78.5553 0003080  84.3941 259.3204  0.99047741 68547
WGS F1 (USA 195)        
1 32258U 07046A   26178.20183661 -.00000256  00000+0  00000+0 0  9990
2 32258   0.0279  78.9809 0000344  18.5680 207.9264  1.00270461 52435
SKYNET 5B               
1 32294U 07056B   26177.95575809  .00000146  00000+0  00000+0 0  9998
2 32294   5.2763  73.3888 0003422  25.8318 185.0074  1.00270970 68296
ASTRA 4A                
1 32299U 07057A   26178.16558250  .00000044  00000+0  00000+0 0  9996
2 32299   0.0181 325.7237 0002630 129.6528 244.3082  1.00271271 51741
HORIZONS-2              
1 32388U 07063B   26178.18447568 -.00000244  00000+0  00000+0 0  9996
2 32388   2.6274  80.5108 0004169   6.7343 180.6622  1.00271244 67911
THURAYA-3               
1 32404U 08001A   26176.68098810  .00000026  00000+0  00000+0 0  9990
2 32404   6.0035  35.8134 0001890 142.0341  49.0680  1.00009028 67578
THOR 5                  
1 32487U 08006A   26178.16454249  .00000002  00000+0  00000+0 0  9997
2 32487   0.0404 253.2198 0002722 205.3168 235.2212  1.00271433 67418
AMC-14                  
1 32708U 08011A   26175.11250619 -.00000074  00000+0  00000+0 0  9996
2 32708  24.0123  20.4352 0045177   7.5191 352.4523  1.00356055 68235
DIRECTV 11              
1 32729U 08013A   26178.14501387 -.00000114  00000+0  00000+0 0  9993
2 32729   0.0102 268.2456 0000361 210.7766 109.2535  1.00270003 45692
ICO G1                  
1 32763U 08016A   26178.14975110 -.00000166  00000+0  00000+0 0  9990
2 32763   5.5293  36.1030 0002269  47.0137 153.2043  1.00272609 66648
VINASAT-1               
1 32767U 08018A   26178.02892112 -.00000317  00000+0  00000+0 0  9991
2 32767   0.0217 309.5457 0001564 149.8583 318.0845  1.00272689 66684
STAR ONE C2             
1 32768U 08018B   26178.18447568 -.00000266  00000+0  00000+0 0  9993
2 32768   1.2661  82.3864 0002973  22.7860 171.5372  1.00270988 66756
AMOS-3                  
1 32794U 08022A   26178.17381587  .00000119  00000+0  00000+0 0  9990
2 32794   0.4808  86.1107 0002526  66.2893 231.8313  1.00482497 82432
GALAXY 18 (G-18)        
1 32951U 08024A   26178.10391876  .00000000  00000+0  00000+0 0  9991
2 32951   0.0262  19.9929 0003257  79.9945  89.6470  1.00269980 45953
ZHONGXING-9             
1 33051U 08028A   26178.14419692 -.00000238  00000+0  00000+0 0  9992
2 33051   0.7948  85.2480 0004074 355.0852 339.2248  1.00271233 66138
SKYNET 5C               
1 33055U 08030A   26178.16107580 -.00000132  00000+0  00000+0 0  9994
2 33055   3.8140  76.9284 0004446  25.6200 212.9234  1.00271872 66051
TURKSAT 3A              
1 33056U 08030B   26178.17294919  .00000157  00000+0  00000+0 0  9995
2 33056   0.0358  70.4158 0005635   9.4332 299.7122  1.00275996 52457
ECHOSTAR 11             
1 33207U 08035A   26178.14293384 -.00000047  00000+0  00000+0 0  9999
2 33207   1.0306  84.0865 0002742 357.7948 135.0252  1.00272051 51312
SUPERBIRD-C2            
1 33274U 08038A   26178.01934706 -.00000297  00000+0  00000+0 0  9999
2 33274   2.3860  81.1503 0006481  28.4626 308.4911  1.00272639105827
INMARSAT 4-F3           
1 33278U 08039A   26178.24115734 -.00000133  00000+0  00000+0 0  9990
2 33278   4.3013  31.6545 0002584  67.7515 164.7667  1.00272559 46648
NIMIQ 4                 
1 33373U 08044A   26178.19003037  .00000000  00000+0  00000+0 0  9990
2 33373   0.0286  41.8470 0001949  55.7570 164.1443  1.00268440 65080
GALAXY 19 (G-19)        
1 33376U 08045A   26178.14536052 -.00000127  00000+0  00000+0 0  9998
2 33376   0.0424 260.6553 0002928 203.9859 125.9473  1.00271298 65000
