OBJECT_NAME,OBJECT_ID,EPOCH,MEAN_MOTION,ECCENTRICITY,INCLINATION,RA_OF_ASC_NODE,ARG_OF_PERICENTER,MEAN_ANOMALY,EPHEMERIS_TYPE,CLASSIFICATION_TYPE,NORAD_CAT_ID,ELEMENT_SET_NO,REV_AT_EPOCH,BSTAR,MEAN_MOTION_DOT,MEAN_MOTION_DDOT
JCSAT-3A,2006-033A,2026-06-27T04:33:30.466080,1.00271982,.0002469,0.0228,303.6871,158.2383,9.7558,0,U,29272,999,4784,0,-.333E-5,0
KOREASAT 5 (MUGUNGWHA 5),2006-034A,2026-06-27T00:49:38.733312,1.00272370,.0001814,1.8101,82.8804,48.7829,268.9599,0,U,29349,999,4141,0,-.348E-5,0
DIRECTV 9S,2006-043A,2026-06-27T03:28:19.245216,1.00271903,.0005423,2.4461,80.7924,18.9230,126.4222,0,U,29494,999,5148,0,-.104E-5,0
OPTUS D1,2006-043B,2026-06-26T21:49:48.823104,1.00270977,.0003726,3.0594,79.5433,8.2974,306.6068,0,U,29495,999,7221,0,-.175E-5,0
BADR-4,2006-051A,2026-06-27T04:06:55.514304,1.00268546,.0005363,2.0301,81.0234,12.7343,277.7247,0,U,29526,999,5136,0,.165E-5,0
WILDBLUE-1,2006-054A,2026-06-27T03:43:38.676864,1.00271204,.0001759,2.8284,80.3650,6.7040,132.9004,0,U,29643,999,5389,0,-.4E-6,0
SKYNET 5A,2007-007B,2026-06-27T02:41:39.612192,1.00271314,.0003706,5.3249,73.6223,27.5478,309.6925,0,U,30794,999,7079,0,-.265E-5,0
ANIK F3,2007-009A,2026-06-27T01:40:36.076800,1.00270509,.0002932,1.2228,83.7482,6.5281,91.3604,0,U,31102,999,4666,0,.1E-6,0
ASTRA 1L,2007-016A,2026-06-27T03:50:04.629120,1.00270460,.0005708,1.3472,81.5146,18.7291,208.0438,0,U,31306,999,4508,0,-.174E-5,0
GALAXY 17 (G-17),2007-016B,2026-06-27T04:33:38.623968,1.00271226,.0004599,2.9969,79.7814,20.0086,158.9135,0,U,31307,999,6990,0,-.197E-5,0
INTELSAT 11 (IS-11),2007-044B,2026-06-27T04:20:24.220896,0.99047741,.000308,3.5910,78.5553,84.3941,259.3204,0,U,32253,999,6854,0,.38E-6,0
WGS F1 (USA 195),2007-046A,2026-06-27T04:50:38.683104,1.00270461,.0000344,0.0279,78.9809,18.5680,207.9264,0,U,32258,999,5243,0,-.256E-5,0
SKYNET 5B,2007-056B,2026-06-26T22:56:17.498976,1.00270970,.0003422,5.2763,73.3888,25.8318,185.0074,0,U,32294,999,6829,0,.146E-5,0
ASTRA 4A,2007-057A,2026-06-27T03:58:26.328000,1.00271271,.000263,0.0181,325.7237,129.6528,244.3082,0,U,32299,999,5174,0,.44E-6,0
HORIZONS-2,2007-063B,2026-06-27T04:25:38.698752,1.00271244,.0004169,2.6274,80.5108,6.7343,180.6622,0,U,32388,999,6791,0,-.244E-5,0
THURAYA-3,2008-001A,2026-06-25T16:20:37.371840,1.00009028,.00018904,6.0035,35.8134,142.0341,49.0680,0,U,32404,999,6757,0,.26E-6,0
THOR 5,2008-006A,2026-06-27T03:56:56.471136,1.00271433,.0002722,0.0404,253.2198,205.3168,235.2212,0,U,32487,999,6741,0,.2E-7,0
AMC-14,2008-011A,2026-06-24T02:42:00.534816,1.00356055,.00451778,24.0123,20.4352,7.5191,352.4523,0,U,32708,999,6823,0,-.74E-6,0
DIRECTV 11,2008-013A,2026-06-27T03:28:49.198368,1.00270003,.0000361,0.0102,268.2456,210.7766,109.2535,0,U,32729,999,4569,0,-.114E-5,0
ICO G1,2008-016A,2026-06-27T03:35:38.495040,1.00272609,.0002269,5.5293,36.1030,47.0137,153.2043,0,U,32763,999,6664,0,-.166E-5,0
VINASAT-1,2008-018A,2026-06-27T00:41:38.784768,1.00272689,.0001564,0.0217,309.5457,149.8583,318.0845,0,U,32767,999,6668,0,-.317E-5,0
STAR ONE C2,2008-018B,2026-06-27T04:25:38.698752,1.00270988,.0002973,1.2661,82.3864,22.7860,171.5372,0,U,32768,999,6675,0,-.266E-5,0
AMOS-3,2008-022A,2026-06-27T04:10:17.691168,1.00482497,.0002526,0.4808,86.1107,66.2893,231.8313,0,U,32794,999,8243,0,.119E-5,0
GALAXY 18 (G-18),2008-024A,2026-06-27T02:29:38.580864,1.00269980,.0003257,0.0262,19.9929,79.9945,89.6470,0,U,32951,999,4595,0,0,0
ZHONGXING-9,2008-028A,2026-06-27T03:27:38.613888,1.00271233,.0004074,0.7948,85.2480,355.0852,339.2248,0,U,33051,999,6613,0,-.238E-5,0
SKYNET 5C,2008-030A,2026-06-27T03:51:56.949120,1.00271872,.0004446,3.8140,76.9284,25.6200,212.9234,0,U,33055,999,6605,0,-.132E-5,0
TURKSAT 3A,2008-030B,2026-06-27T04:09:02.810016,1.00275996,.0005635,0.0358,70.4158,9.4332,299.7122,0,U,33056,999,5245,0,.157E-5,0
ECHOSTAR 11,2008-035A,2026-06-27T03:25:49.483776,1.00272051,.0002742,1.0306,84.0865,357.7948,135.0252,0,U,33207,999,5131,0,-.47E-6,0
SUPERBIRD-C2,2008-038A,2026-06-27T00:27:51.585984,1.00272639,.0006481,2.3860,81.1503,28.4626,308.4911,0,U,33274,999,10582,0,-.297E-5,0
INMARSAT 4-F3,2008-039A,2026-06-27T05:47:15.994176,1.00272559,.0002584,4.3013,31.6545,67.7515,164.7667,0,U,33278,999,4664,0,-.133E-5,0
NIMIQ 4,2008-044A,2026-06-27T04:33:38.623968,1.00268440,.0001949,0.0286,41.8470,55.7570,164.1443,0,U,33373,999,6508,0,0,0
GALAXY 19 (G-19),2008-045A,2026-06-27T03:29:19.148928,1.00271298,.0002928,0.0424,260.6553,203.9859,125.9473,0,U,33376,999,6500,0,-.127E-5,0
